[{"OBJECT_NAME":"TIANPING 2C","OBJECT_ID":"2022-032D","EPOCH":"2026-03-09T22:24:23.522112","MEAN_MOTION":15.10225163,"ECCENTRICITY":0.00079422,"INCLINATION":97.5961,"RA_OF_ASC_NODE":122.1196,"ARG_OF_PERICENTER":128.8925,"MEAN_ANOMALY":231.3013,"EPHEMERIS_TYPE":0,"CLASSIFICATION_TYPE":"U","NORAD_CAT_ID":52156,"ELEMENT_SET_NO":999,"REV_AT_EPOCH":21586,"BSTAR":0.00036090623,"MEAN_MOTION_DOT":5.841e-5,"MEAN_MOTION_DDOT":0},{"OBJECT_NAME":"STARLINK-3873","OBJECT_ID":"2022-049S","EPOCH":"2026-03-09T06:25:18.420384","MEAN_MOTION":15.0883171,"ECCENTRICITY":0.00013386,"INCLINATION":53.2168,"RA_OF_ASC_NODE":61.015,"ARG_OF_PERICENTER":91.4534,"MEAN_ANOMALY":268.6611,"EPHEMERIS_TYPE":0,"CLASSIFICATION_TYPE":"U","NORAD_CAT_ID":52467,"ELEMENT_SET_NO":999,"REV_AT_EPOCH":21218,"BSTAR":-1.6497752e-5,"MEAN_MOTION_DOT":-5.5e-6,"MEAN_MOTION_DDOT":0}]
